OBJECT_NAME,OBJECT_ID,EPOCH,MEAN_MOTION,ECCENTRICITY,INCLINATION,RA_OF_ASC_NODE,ARG_OF_PERICENTER,MEAN_ANOMALY,EPHEMERIS_TYPE,CLASSIFICATION_TYPE,NORAD_CAT_ID,ELEMENT_SET_NO,REV_AT_EPOCH,BSTAR,MEAN_MOTION_DOT,MEAN_MOTION_DDOT
LEMUR-1,2014-033AL,2026-06-17T21:36:23.440320,14.85249228,.00496613,97.7878,318.6894,76.3575,284.3163,0,U,40044,999,64557,.19560169E-3,.166E-4,0
LEMUR-2-GREENBERG,2017-042N,2026-06-18T11:01:19.276896,15.31359663,.00083949,97.3821,350.0774,9.3280,350.8115,0,U,42837,999,48858,.4289866E-3,.12937E-3,0
LEMUR-2-ANDIS,2017-042P,2026-06-18T11:39:18.369792,15.34885216,.00080437,97.3677,350.2921,7.6302,352.5062,0,U,42838,999,48865,.47855612E-3,.16141E-3,0
LEMUR-2-MONSON,2017-042Q,2026-06-18T11:17:55.448160,15.28037934,.00060644,97.4078,350.0593,1.3615,358.7640,0,U,42839,999,48836,.3935774E-3,.10699E-3,0
LEMUR-2-FURIAUS,2017-042R,2026-06-18T10:53:40.308000,15.30285769,.00081076,97.3770,348.0240,65.3345,294.8739,0,U,42840,999,48840,.47783719E-3,.13947E-3,0
LEMUR-2-PETERG,2017-042S,2026-06-18T11:17:38.778144,15.33923288,.00030844,97.3990,354.5021,351.8183,8.3009,0,U,42841,999,48863,.48821553E-3,.15959E-3,0
LEMUR-2-DEMBITZ,2017-042T,2026-06-18T11:22:15.021408,15.30325732,.00066254,97.3825,351.0690,24.6054,335.5501,0,U,42842,999,48854,.42389282E-3,.12373E-3,0
LEMUR-2-ZACHARY,2017-042W,2026-06-18T11:32:32.625024,15.50356452,.00027864,97.3591,1.1445,28.0577,332.0824,0,U,42845,999,48940,.61851184E-3,.35114E-3,0
LEMUR-2-AMANDA-SVANTE,2021-034B,2026-06-18T11:11:17.129472,15.34359497,.0002492,97.5757,247.7855,203.0789,157.0342,0,U,48269,999,28125,.72936334E-3,.24235E-3,0
LEMUR-2-SPECIAL-K,2021-034F,2026-06-18T11:49:07.033728,15.64790945,.00044871,97.5651,256.4445,228.2243,131.8633,0,U,48273,999,28189,.12800319E-2,.126097E-2,0
LEMUR-2-EMBRIONOVIS,2023-084AQ,2026-06-17T07:57:54.861408,15.37551092,.00077324,97.6296,312.5361,319.5567,40.5101,0,U,56970,999,16770,.28629971E-3,.10473E-3,0
LEMUR-2-DEVERILL-M-T,2023-100F,2026-06-18T14:23:15.456480,15.39812447,.00061205,99.4465,208.7650,46.1145,314.0599,0,U,57391,999,16146,.53654058E-3,.21208E-3,0
LEMUR-2-BASS,2023-174D,2026-06-18T04:23:27.831264,15.43121996,.0007799,97.3847,253.9091,159.0416,201.1152,0,U,58259,999,14551,.31335607E-3,.138E-3,0
LEMUR-2-JK0903EM1407,2023-174CJ,2026-06-18T11:57:06.291936,15.51737446,.0005722,97.3921,260.0046,116.7088,243.4751,0,U,58336,999,14593,.35748095E-3,.21247E-3,0
LEMUR-2-MJR092620,2023-174CN,2026-06-18T12:27:18.881856,15.44915529,.00071166,97.3974,259.5722,113.7449,246.4547,0,U,58340,999,14585,.32763359E-3,.15336E-3,0
LEMUR-2-NIMBUS2000,2024-022A,2026-06-18T09:04:48.721152,15.40027196,.00103663,97.4103,19.3941,112.2621,247.9726,0,U,58899,999,13245,.33208E-3,.13207E-3,0
LEMUR-2-VALHALLA,2024-022B,2026-06-18T08:59:43.709280,15.39701639,.00108803,97.4102,19.3805,108.4761,251.7668,0,U,58900,999,13245,.31546677E-3,.12409E-3,0
LEMUR-2-CAEL,2024-022E,2026-06-18T07:38:55.507200,15.41005260,.00092522,97.4083,20.2616,94.1436,266.0868,0,U,58903,999,13251,.33935291E-3,.13937E-3,0
LEMUR-2-JOHNNYTRUONG,2024-043BA,2026-06-17T23:36:28.897920,15.60518881,.00048412,97.5384,320.7354,173.9857,186.1459,0,U,59146,999,12816,.40066574E-3,.3299E-3,0
LEMUR-2-TOMATOKECHUP,2024-149D,2026-06-18T11:24:31.898880,15.36055818,.00015788,97.3799,251.5254,173.4213,186.7052,0,U,60471,999,10236,.25147896E-3,.875E-4,0
LEMUR-2-STELLA,2024-149BT,2026-06-18T12:54:33.511968,15.11833501,.00016078,97.6734,251.9987,96.2198,263.9215,0,U,60533,999,10070,.48796208E-3,.8277E-4,0
LEMUR-2-MARHISYAM,2024-149BW,2026-06-18T14:02:15.949248,15.11283855,.00032428,97.6878,252.4962,116.0177,244.1387,0,U,60536,999,10069,.53697197E-3,.8978E-4,0
LEMUR-2-AHMED-ASRAR,2024-149DN,2026-06-18T05:17:58.970688,15.12732689,.00018003,97.7006,254.2272,42.4365,317.7005,0,U,60576,999,10072,.49630315E-3,.8634E-4,0
LEMUR-2-LLOYD,2024-149DP,2026-06-18T12:01:15.931776,15.09260726,.00049005,97.6748,250.6303,137.3235,222.8375,0,U,60577,999,10059,.52171243E-3,.8248E-4,0
LEMUR-2-SQUIRRELCOMM,2024-149DQ,2026-06-18T10:48:41.805504,15.07160374,.00061969,97.6706,250.3576,57.4751,302.7074,0,U,60578,999,10059,.33284226E-3,.4944E-4,0
LEMUR-2-SIERRINI,2024-149DR,2026-06-18T11:25:50.232576,15.10968434,.00059764,97.6840,252.0741,160.6436,199.5021,0,U,60579,999,10065,.48059989E-3,.796E-4,0
LEMUR-2-WILSON,2025-009CP,2026-06-18T03:58:43.663296,14.95169543,.00042349,97.7025,247.6131,56.6184,303.5442,0,U,62694,999,7750,.21710245E-3,.2327E-4,0
LEMUR-2-STAR-FOX,2025-009CR,2026-06-18T11:47:29.625504,15.02520141,.00039954,97.6954,251.0905,108.1842,251.9818,0,U,62696,999,7775,.45978319E-3,.605E-4,0
LEMUR-2-ARIANNA,2025-009CU,2026-06-18T11:45:07.534656,15.02501949,.00043635,97.6893,250.8626,113.6023,246.5661,0,U,62699,999,7775,.46841996E-3,.6162E-4,0
LEMUR-2-ALISIA,2025-009DB,2026-06-18T11:12:57.579840,15.02782185,.0002143,97.6946,251.6287,190.7634,169.3546,0,U,62706,999,10035,.40512816E-3,.536E-4,0
